[{"OBJECT_NAME":"STARLINK-32161","OBJECT_ID":"2024-150L","EPOCH":"2026-03-09T21:20:46.272480","MEAN_MOTION":15.30186437,"ECCENTRICITY":8.838e-5,"INCLINATION":53.1597,"RA_OF_ASC_NODE":305.9754,"ARG_OF_PERICENTER":91.833,"MEAN_ANOMALY":268.2772,"EPHEMERIS_TYPE":0,"CLASSIFICATION_TYPE":"U","NORAD_CAT_ID":60593,"ELEMENT_SET_NO":999,"REV_AT_EPOCH":8799,"BSTAR":5.8366414e-5,"MEAN_MOTION_DOT":1.369e-5,"MEAN_MOTION_DDOT":0},{"OBJECT_NAME":"SCS-01 J","OBJECT_ID":"2025-100J","EPOCH":"2026-03-09T22:31:25.904064","MEAN_MOTION":15.31338011,"ECCENTRICITY":0.00063909,"INCLINATION":97.3693,"RA_OF_ASC_NODE":145.4824,"ARG_OF_PERICENTER":272.025,"MEAN_ANOMALY":88.026,"EPHEMERIS_TYPE":0,"CLASSIFICATION_TYPE":"U","NORAD_CAT_ID":63990,"ELEMENT_SET_NO":999,"REV_AT_EPOCH":4563,"BSTAR":0.0011832888,"MEAN_MOTION_DOT":0.00035886,"MEAN_MOTION_DDOT":0}]
